start=new Date('2022-05-16T00:00:00.000Z').valueOf();
sats=[{"SEMIMAJOR_AXIS":"6925.375","INCLINATION":"53.0548","ECCENTRICITY":"0.00032210","MEAN_MOTION_DDOT":"0.0000000000000","OBJECT_ID":"2020-088J","PERIAPSIS":"545.010","OBJECT_TYPE":"PAYLOAD","MEAN_MOTION_DOT":"-0.00001123","DECAY_DATE":null,"RCS_SIZE":"LARGE","MEAN_MOTION":"15.06391291","EPOCH":"2022-05-15T14:17:41.728704","SITE":"AFETR","RA_OF_ASC_NODE":"89.9373","ARG_OF_PERICENTER":"48.3150","ELEMENT_SET_NO":"999","CLASSIFICATION_TYPE":"U","BSTAR":"-0.00005644500000","CENTER_NAME":"EARTH","COUNTRY_CODE":"US","REF_FRAME":"TEME","MEAN_ANOMALY":"311.8114","REV_AT_EPOCH":"8157","LAUNCH_DATE":"2020-11-25","TIME_SYSTEM":"UTC","PERIOD":"95.593","TLE_LINE1":"1 47130U 20088J   22135.59562186 -.00001123  00000-0 -56445-4 0  9995","FILE":"3447521","OBJECT_NAME":"STARLINK-1839","EPHEMERIS_TYPE":"0","NORAD_CAT_ID":"47130","MEAN_ELEMENT_THEORY":"SGP4","APOAPSIS":"549.471","TLE_LINE2":"2 47130  53.0548  89.9373 0003221  48.3150 311.8114 15.06391291 81577","GP_ID":"203648357"},{"TIME_SYSTEM":"UTC","LAUNCH_DATE":"2020-11-25","FILE":"3447225","OBJECT_NAME":"STARLINK-1843","TLE_LINE1":"1 47133U 20088M   22135.53848675 -.00000602  00000-0 -21547-4 0  9998","PERIOD":"95.592","MEAN_ANOMALY":"299.4597","REV_AT_EPOCH":"8215","APOAPSIS":"548.325","GP_ID":"203620660","TLE_LINE2":"2 47133  53.0563  70.1976 0001591  60.6551 299.4597 15.06396765 82150","EPHEMERIS_TYPE":"0","NORAD_CAT_ID":"47133","MEAN_ELEMENT_THEORY":"SGP4","DECAY_DATE":null,"MEAN_MOTION":"15.06396765","RCS_SIZE":"LARGE","MEAN_MOTION_DDOT":"0.0000000000000","OBJECT_ID":"2020-088M","ECCENTRICITY":"0.00015910","SEMIMAJOR_AXIS":"6925.358","INCLINATION":"53.0563","MEAN_MOTION_DOT":"-0.00000602","OBJECT_TYPE":"PAYLOAD","PERIAPSIS":"546.122","COUNTRY_CODE":"US","REF_FRAME":"TEME","CLASSIFICATION_TYPE":"U","BSTAR":"-0.00002154700000","CENTER_NAME":"EARTH","ELEMENT_SET_NO":"999","EPOCH":"2022-05-15T12:55:25.255200","ARG_OF_PERICENTER":"60.6551","RA_OF_ASC_NODE":"70.1976","SITE":"AFETR"},{"LAUNCH_DATE":"2020-11-25","TIME_SYSTEM":"UTC","TLE_LINE1":"1 47134U 20088N   22135.11365503  .00007262  00000-0  50548-3 0  9996","OBJECT_NAME":"STARLINK-1844","FILE":"3447100","PERIOD":"95.590","MEAN_ANOMALY":"289.3486","REV_AT_EPOCH":"8164","APOAPSIS":"548.330","TLE_LINE2":"2 47134  53.0552  82.1133 0001756  70.7693 289.3486 15.06432554 81644","GP_ID":"203613968","EPHEMERIS_TYPE":"0","MEAN_ELEMENT_THEORY":"SGP4","NORAD_CAT_ID":"47134","DECAY_DATE":null,"MEAN_MOTION":"15.06432554","RCS_SIZE":"LARGE","ECCENTRICITY":"0.00017560","MEAN_MOTION_DDOT":"0.0000000000000","OBJECT_ID":"2020-088N","SEMIMAJOR_AXIS":"6925.249","INCLINATION":"53.0552","OBJECT_TYPE":"PAYLOAD","MEAN_MOTION_DOT":"0.00007262","PERIAPSIS":"545.898","COUNTRY_CODE":"US","REF_FRAME":"TEME","ELEMENT_SET_NO":"999","BSTAR":"0.00050548000000","CENTER_NAME":"EARTH","CLASSIFICATION_TYPE":"U","EPOCH":"2022-05-15T02:43:39.794592","ARG_OF_PERICENTER":"70.7693","RA_OF_ASC_NODE":"82.1133","SITE":"AFETR"},{"REF_FRAME":"TEME","COUNTRY_CODE":"US","ELEMENT_SET_NO":"999","CLASSIFICATION_TYPE":"U","BSTAR":"0.00004767100000","CENTER_NAME":"EARTH","ARG_OF_PERICENTER":"55.5640","RA_OF_ASC_NODE":"69.0551","SITE":"AFETR","EPOCH":"2022-05-15T19:06:57.856608","MEAN_MOTION":"15.06398871","RCS_SIZE":"LARGE","DECAY_DATE":null,"OBJECT_TYPE":"PAYLOAD","MEAN_MOTION_DOT":"0.00000428","PERIAPSIS":"545.875","ECCENTRICITY":"0.00019380","MEAN_MOTION_DDOT":"0.0000000000000","OBJECT_ID":"2020-088P","SEMIMAJOR_AXIS":"6925.352","INCLINATION":"53.0554","TLE_LINE2":"2 47135  53.0554  69.0551 0001938  55.5640 304.5532 15.06398871 81881","GP_ID":"203649602","APOAPSIS":"548.559","MEAN_ELEMENT_THEORY":"SGP4","NORAD_CAT_ID":"47135","EPHEMERIS_TYPE":"0","TLE_LINE1":"1 47135U 20088P   22135.79650297  .00000428  00000-0  47671-4 0  9999","OBJECT_NAME":"STARLINK-1845","FILE":"3447521","PERIOD":"95.592","LAUNCH_DATE":"2020-11-25","TIME_SYSTEM":"UTC","REV_AT_EPOCH":"8188","MEAN_ANOMALY":"304.5532"},{"COUNTRY_CODE":"US","REF_FRAME":"TEME","ELEMENT_SET_NO":"999","CLASSIFICATION_TYPE":"U","BSTAR":"0.00023436000000","CENTER_NAME":"EARTH","EPOCH":"2022-05-15T20:41:09.979584","ARG_OF_PERICENTER":"69.8903","SITE":"AFETR","RA_OF_ASC_NODE":"78.7665","DECAY_DATE":null,"MEAN_MOTION":"15.06405815","RCS_SIZE":"LARGE","ECCENTRICITY":"0.00014990","MEAN_MOTION_DDOT":"0.0000000000000","OBJECT_ID":"2020-088Q","INCLINATION":"53.0557","SEMIMAJOR_AXIS":"6925.331","PERIAPSIS":"546.158","OBJECT_TYPE":"PAYLOAD","MEAN_MOTION_DOT":"0.00003212","APOAPSIS":"548.234","TLE_LINE2":"2 47136  53.0557  78.7665 0001499  69.8903 290.2247 15.06405815 81757","GP_ID":"203648858","EPHEMERIS_TYPE":"0","NORAD_CAT_ID":"47136","MEAN_ELEMENT_THEORY":"SGP4","LAUNCH_DATE":"2020-11-25","TIME_SYSTEM":"UTC","TLE_LINE1":"1 47136U 20088Q   22135.86192106  .00003212  00000-0  23436-3 0  9994","FILE":"3447521","OBJECT_NAME":"STARLINK-1846","PERIOD":"95.592","MEAN_ANOMALY":"290.2247","REV_AT_EPOCH":"8175"},{"COUNTRY_CODE":"US","REF_FRAME":"TEME","ELEMENT_SET_NO":"999","BSTAR":"0.00008196400000","CENTER_NAME":"EARTH","CLASSIFICATION_TYPE":"U","ARG_OF_PERICENTER":"55.1861","SITE":"AFETR","RA_OF_ASC_NODE":"68.8298","EPOCH":"2022-05-15T20:15:58.077216","RCS_SIZE":"LARGE","MEAN_MOTION":"15.06395916","DECAY_DATE":null,"OBJECT_TYPE":"PAYLOAD","MEAN_MOTION_DOT":"0.00000939","PERIAPSIS":"545.957","ECCENTRICITY":"0.00018320","MEAN_MOTION_DDOT":"0.0000000000000","OBJECT_ID":"2020-088R","INCLINATION":"53.0559","SEMIMAJOR_AXIS":"6925.361","TLE_LINE2":"2 47137  53.0559  68.8298 0001832  55.1861 304.9300 15.06395916 81892","GP_ID":"203649108","APOAPSIS":"548.495","NORAD_CAT_ID":"47137","MEAN_ELEMENT_THEORY":"SGP4","EPHEMERIS_TYPE":"0","TLE_LINE1":"1 47137U 20088R   22135.84442219  .00000939  00000-0  81964-4 0  9990","FILE":"3447521","OBJECT_NAME":"STARLINK-1849","PERIOD":"95.592","LAUNCH_DATE":"2020-11-25","TIME_SYSTEM":"UTC","REV_AT_EPOCH":"8189","MEAN_ANOMALY":"304.9300"},{"MEAN_MOTION":"15.06399492","RCS_SIZE":"LARGE","DECAY_DATE":null,"PERIAPSIS":"545.698","OBJECT_TYPE":"PAYLOAD","MEAN_MOTION_DOT":"0.00001624","SEMIMAJOR_AXIS":"6925.350","INCLINATION":"53.0577","MEAN_MOTION_DDOT":"0.0000000000000","OBJECT_ID":"2020-088S","ECCENTRICITY":"0.00021900","CLASSIFICATION_TYPE":"U","BSTAR":"0.00012789000000","CENTER_NAME":"EARTH","ELEMENT_SET_NO":"999","COUNTRY_CODE":"US","REF_FRAME":"TEME","SITE":"AFETR","RA_OF_ASC_NODE":"73.9920","ARG_OF_PERICENTER":"46.8073","EPOCH":"2022-05-15T19:28:49.464768","PERIOD":"95.592","OBJECT_NAME":"STARLINK-1850","FILE":"3447521","TLE_LINE1":"1 47138U 20088S   22135.81168362  .00001624  00000-0  12789-3 0  9992","TIME_SYSTEM":"UTC","LAUNCH_DATE":"2020-11-25","REV_AT_EPOCH":"8182","MEAN_ANOMALY":"313.3099","GP_ID":"203649357","TLE_LINE2":"2 47138  53.0577  73.9920 0002190  46.8073 313.3099 15.06399492 81827","APOAPSIS":"548.732","NORAD_CAT_ID":"47138","MEAN_ELEMENT_THEORY":"SGP4","EPHEMERIS_TYPE":"0"},{"CENTER_NAME":"EARTH","BSTAR":"0.00008605500000","CLASSIFICATION_TYPE":"U","ELEMENT_SET_NO":"999","REF_FRAME":"TEME","COUNTRY_CODE":"US","EPOCH":"2022-05-15T20:57:43.209792","SITE":"AFETR","RA_OF_ASC_NODE":"83.7067","ARG_OF_PERICENTER":"47.7877","DECAY_DATE":null,"MEAN_MOTION":"15.06403968","RCS_SIZE":"LARGE","SEMIMAJOR_AXIS":"6925.336","INCLINATION":"53.0534","MEAN_MOTION_DDOT":"0.0000000000000","OBJECT_ID":"2020-088T","ECCENTRICITY":"0.00019430","OBJECT_TYPE":"PAYLOAD","MEAN_MOTION_DOT":"0.00001000","PERIAPSIS":"545.856","APOAPSIS":"548.547","GP_ID":"203650103","TLE_LINE2":"2 47139  53.0534  83.7067 0001943  47.7877 312.3277 15.06403968 81684","EPHEMERIS_TYPE":"0","MEAN_ELEMENT_THEORY":"SGP4","NORAD_CAT_ID":"47139","TIME_SYSTEM":"UTC","LAUNCH_DATE":"2020-11-25","PERIOD":"95.592","FILE":"3447521","OBJECT_NAME":"STARLINK-1852","TLE_LINE1":"1 47139U 20088T   22135.87341678  .00001000  00000-0  86055-4 0  9998","MEAN_ANOMALY":"312.3277","REV_AT_EPOCH":"8168"},{"REV_AT_EPOCH":"8189","MEAN_ANOMALY":"290.2323","TLE_LINE1":"1 47141U 20088V   22135.81861247  .00003661  00000-0  26455-3 0  9996","FILE":"3447521","OBJECT_NAME":"STARLINK-1854","PERIOD":"95.592","LAUNCH_DATE":"2020-11-25","TIME_SYSTEM":"UTC","NORAD_CAT_ID":"47141","MEAN_ELEMENT_THEORY":"SGP4","EPHEMERIS_TYPE":"0","TLE_LINE2":"2 47141  53.0557  68.9585 0001536  69.8831 290.2323 15.06401768 81890","GP_ID":"203648358","APOAPSIS":"548.272","OBJECT_TYPE":"PAYLOAD","MEAN_MOTION_DOT":"0.00003661","PERIAPSIS":"546.144","ECCENTRICITY":"0.00015360","OBJECT_ID":"2020-088V","MEAN_MOTION_DDOT":"0.0000000000000","SEMIMAJOR_AXIS":"6925.343","INCLINATION":"53.0557","MEAN_MOTION":"15.06401768","RCS_SIZE":"LARGE","DECAY_DATE":null,"ARG_OF_PERICENTER":"69.8831","RA_OF_ASC_NODE":"68.9585","SITE":"AFETR","EPOCH":"2022-05-15T19:38:48.117408","REF_FRAME":"TEME","COUNTRY_CODE":"US","ELEMENT_SET_NO":"999","CLASSIFICATION_TYPE":"U","CENTER_NAME":"EARTH","BSTAR":"0.00026455000000"},{"OBJECT_TYPE":"PAYLOAD","MEAN_MOTION_DOT":"0.00000743","PERIAPSIS":"546.095","ECCENTRICITY":"0.00016000","OBJECT_ID":"2020-088X","MEAN_MOTION_DDOT":"0.0000000000000","INCLINATION":"53.0565","SEMIMAJOR_AXIS":"6925.338","MEAN_MOTION":"15.06403568","RCS_SIZE":"LARGE","DECAY_DATE":null,"ARG_OF_PERICENTER":"54.4796","SITE":"AFETR","RA_OF_ASC_NODE":"69.0222","EPOCH":"2022-05-15T19:12:15.721344","REF_FRAME":"TEME","COUNTRY_CODE":"US","ELEMENT_SET_NO":"999","CENTER_NAME":"EARTH","CLASSIFICATION_TYPE":"U","BSTAR":"0.00006879300000","REV_AT_EPOCH":"8188","MEAN_ANOMALY":"305.6342","TLE_LINE1":"1 47143U 20088X   22135.80018196  .00000743  00000-0  68793-4 0  9994","OBJECT_NAME":"STARLINK-1856","FILE":"3447521","PERIOD":"95.592","LAUNCH_DATE":"2020-11-25","TIME_SYSTEM":"UTC","NORAD_CAT_ID":"47143","MEAN_ELEMENT_THEORY":"SGP4","EPHEMERIS_TYPE":"0","TLE_LINE2":"2 47143  53.0565  69.0222 0001600  54.4796 305.6342 15.06403568 81884","GP_ID":"203648608","APOAPSIS":"548.311"}];
